#dP2022  3 29  0  0  0.00000000      96 __u+U ITR00 FIT  IAC
## 2203 172800.00000000   900.00000000 59667 0.0000000000000
+  116   C06C07C08C10C11C12C13C14C16C19C20C21C22C23C24C25C26
+        C27C28C29C30C32C33C34C35C36C37C38C39C40C41C42C43C44
+        C45C46E01E02E03E04E05E07E08E09E10E11E12E13E14E15E18
+        E19E21E24E25E26E27E30E31E33E34E36G01G02G03G04G05G06
+        G07G08G09G10G11G12G13G14G15G16G17G18G19G20G21G22G23
+        G24G25G26G27G28G29G30G31G32J02J03R01R02R03R04R05R07
+        R08R09R11R12R13R14R15R17R18R19R20R21R22R24  0  0  0
++         9  9  9  9  9  8  9 10  9  8  8  9  9  9  8  8  8
++         8  9  8  8  9  8  7  9  8  9 10  9  8  8  8  9  8
++         9  8  8  8  8  8  9  8  8  8  8  8  8  9  8  9  8
++         8  9  8  9  8  8  7  8  9  8  9  8  9  8  8  9  9
++         8  8  8  8  8  8  8  8  8  8  8  8  9  9  8  8  8
++         8  8  8  8  8  8  8  8  8  9  9  9  8  8  8  8  8
++         9  8  0  8  8  8  8  8  8  8  8  8  9  7  0  0  0
%c M  cc GPS ccc cccc cccc cccc cccc ccccc ccccc ccccc ccccc
%c cc cc ccc ccc cccc cccc cccc cccc ccccc ccccc ccccc ccccc
%f  0.0000000  0.000000000  0.00000000000  0.000000000000000
%f  0.0000000  0.000000000  0.00000000000  0.000000000000000
%i    0    0    0    0      0      0      0      0         0
%i    0    0    0    0      0      0      0      0         0
/* INFORMATION & ANALYSIS CENTER (IAC)      ULTRA-RAPID DATA
/* S/V CLOCKS ARE ALIGNED TO GNSS TIME                      
/* G:C1WC2W R:C1PC2P E:C1XC5X C:C2IC6I J:C1CC2S             
/* PCV:IGS14_2196 OL/AL:FES2004  NONE     YN ORB:CoN CLK:CoN
*  2022 03 29  7 45  0.00000000
PC06  -2012.535531  31460.028744 -27891.142348   -304.353490
PC07 -16182.853445  27153.417182  27839.413790     75.283917
PC08 -14799.126924  39507.593284  -2053.844298    226.412395
PC10  -6890.501625  27839.631047  31050.455075    137.766455
PC11 -19783.946571  -5886.710820  18830.531315    258.518439
PC12 -18691.089397 -20370.059611   3810.806271   -632.684172
PC13  -7968.315253  40084.565537 -10782.536619    -76.117157
PC14 -27645.614483   2071.408946   2937.448534    453.379257
PC16  -3040.881620  30055.849836 -29138.764540    110.569463
PC19  25791.830069  -8434.101604   6589.270460    882.702489
PC20  25748.957202   3301.103969 -10259.458645   -860.262720
PC21 -10111.109149 -13848.497974  22034.943312    -16.570059
PC22  10963.973978 -15736.570442  20288.372937   -963.527412
PC23 -10526.255285  25846.672566   -149.001063   -937.889361
PC24 -14734.380496  -6995.449006 -22656.665253   -949.300615
PC25 -17615.800185  14851.257199 -15768.607141   -758.924179
PC26  -4288.158294 -22129.930733 -16441.148044    759.431220
PC27  13810.301246  23709.565029   5007.879166    699.374761
PC28  -1317.627961  20156.820905  19254.456785     49.006462
PC29  15934.622951  -5060.748427 -22350.544335    534.049896
PC30  21552.658934  13336.327528 -11655.157913    496.011308
PC32  10215.851844  13765.074814 -22001.023152   -965.648194
PC33 -25768.793440   8508.357025  -6456.819996   -972.536434
PC34 -21594.776799 -12586.876665  12426.391222   -437.706816
PC35   1424.967527 -19775.498604 -19663.054035    203.940523
PC36  18025.881873 -13930.651806  16131.749157   -963.028932
PC37   2896.239797  22939.658686  15649.646859   -932.602819
PC38 -18071.271297  37841.219267   5082.091647    221.325840
PC39  -7736.682250  25722.375163 -32435.629413     34.916423
PC40 -22146.801099  20897.264178  29070.984100    256.301362
PC41 -11386.624645  15706.376825 -20003.454313   -967.235881
PC42 -25253.485782  -4019.820897  11200.468619   -943.429076
PC43 -16463.958769   4367.055747  22099.684218   -933.208944
PC44 -14475.605750 -23307.467641  -5218.750503    610.238953
PC45  10340.504714 -25906.067169   -106.086834    717.176782
PC46  15234.212328   5420.619782  22740.018798   -243.012975
PE01  -1556.265565  20125.588237  21648.189036   -605.950434
PE02   1359.771103 -20045.313959 -21737.020656    289.331935
PE03 -10470.255666 -19127.016287  20015.526325   -542.340589
PE04  25875.561465  13540.829063  -4811.917629   -994.820501
PE05  11377.717521 -13568.062607  23726.846370   -195.919793
PE07 -26295.581315    186.951309 -13573.258994   -653.130310
PE08 -26079.636114 -13242.302433   4517.376771   -503.167982
PE09  26190.031572   -365.767170  13808.373510   -465.609018
PE10  16568.080370   7521.331843 -23352.194065   -503.359713
PE11  15550.956390  -4619.632337 -24767.444475   4105.988304
PE12  14967.392129  17847.142749 -18250.321767   4689.867178
PE13 -15625.083535   3810.954200  24853.377873    427.638135
PE14 -18331.390025   2675.904016  14369.140550  -1794.963518
PE15 -14919.617594 -17989.910355  18177.992129    754.931618
PE18  23582.107191  -6127.833184 -21555.941483  -1628.280956
PE19   7896.756867  18952.265735 -21310.409335  -2109.559116
PE21 -18108.316600  21897.350539   8301.228126   -725.301422
PE24  25269.856430 -10072.331106  11617.355688   -531.374962
PE25  18277.837445 -21832.827591  -8070.703633   -568.478461
PE26  -6747.404062  23914.505550  16085.426428   -967.488981
PE27 -25290.411793  11187.892124 -10577.101101   -263.936106
PE30 -16784.323952  -7015.789899 -23368.158480   -386.989519
PE31  17523.738736   6027.250154  23080.867168   -494.244026
PE33   5412.951335  29081.268707   -806.698659   -458.121204
PE34  -5592.375110 -29050.113033   1009.546282   -509.251460
PE36   7141.792637 -23249.240642 -16879.105560   -352.012202
PG01 -13095.111858  10615.753610  20138.520829    397.621542
PG02  13940.176566  12595.004998 -18061.212533   -652.738224
PG03 -23062.105159  12925.874099   1700.451466   -184.188754
PG04 -18994.856807   3665.072768 -18227.818342   -180.171617
PG05  21569.091144  -1329.517039 -15703.450011    -76.368068
PG06   5739.409272  24706.033547  -7675.939482    247.623000
PG07  -5916.092295  23800.701049  -9149.639105    318.235994
PG08 -24175.391201  -4068.918275  10623.527822    -61.726999
PG09  -9002.706013  12610.779113 -21639.453978   -347.065357
PG10   2127.109475 -17399.407074  20010.502014   -361.652304
PG11  12839.861150  13550.429972 -18904.342073    -51.151245
PG12  24356.103440  -9193.681567   4632.860635   -192.106052
PG13  22892.122643  12864.372210   4395.001006    284.868503
PG14  -3813.137127  17874.284440  19239.091817    -98.197008
PG15  24379.901568   1011.346644  10456.465905    -73.130635
PG16 -19312.507964  -4295.668669 -18210.368470   -485.967690
PG17   7144.919227  18608.595354  17959.686357    593.418666
PG18   6401.949940 -23800.801032  -9764.501988    208.685591
PG19  14080.808234  19185.152075  11732.854277    137.266674
PG20  15555.586485   6312.239279 -20528.585253    516.086414
PG21 -15707.925540  -1384.625340  22080.884944    159.920741
PG22 -16163.836080 -18856.989657  10072.100664    234.874477
PG23  13089.540176 -19179.693916  12796.066880    -10.723986
PG24  14760.510768  -6333.164810  20805.349004    263.199447
PG25  18369.003641 -17629.015806  -7327.873571    304.756893
PG26  -9701.354967 -12433.706652 -21463.236055    194.518174
PG27 -23510.930778 -12821.249194   -291.935642    168.688634
PG28   4806.399162  14629.919432  22170.189906    374.736546
PG29  11136.360047 -10246.310340 -21883.661633   -496.906510
PG30   -484.746997  26392.849135  -1132.782811   -521.161810
PG31  -7361.398702 -23203.620671 -10167.978168   -171.042913
PG32 -11179.177410 -18427.780221  15782.475338    -94.236745
PJ02 -29416.004922  30275.330984   5414.665299     -2.315327
PJ03 -25609.081376  23264.795298  29158.647763     -1.239133
PR01 -18509.179521  -7850.215648  15696.867343      7.439010
PR02 -25353.588623    247.016242  -3032.446063    513.930271
PR03 -16045.483328   7977.104507 -18130.053814     53.938932
PR04   2075.631813  10844.394245 -22961.015412    134.103633
PR05  18975.223035   7928.612830 -15059.325927     90.210509
PR07  15281.332784  -8259.667601  18703.207569     33.206851
PR08  -2270.511676 -10993.686045  22967.934642    -64.314696
PR09  15655.466977  -8390.770923  18352.546910     46.881740
PR11   5840.047939 -21273.097451 -12810.426700 999999.999999
PR12  -7160.434818  -9060.207281 -22722.210342     17.638705
PR13 -15179.313749   7265.733740 -19190.684567    -20.107336
PR14 -14685.758132  20555.498752  -3475.121835     75.917218
PR15  -5496.870599  20969.343829  13458.496094     97.215192
PR17  -4603.713840  12529.663116  21750.327786    513.287731
PR18   6119.651360  22377.499020  10550.734412    111.815773
PR19  12801.489099  21439.869775  -5198.331962   -183.359134
PR20  13133.629368   5930.095317 -21026.944864    -67.619959
PR21   3700.197119 -13663.359262 -21216.536253   -289.072765
PR22  -6580.301113 -22714.246871  -9712.783600   -173.544353
PR24 -13478.900149  -4758.507848  21140.690043     86.581632
EOF
